ELYSIUM STAR 2 & LFF    
1 43760U 18099C   24294.75458861  .00185260  00000+0  30126-2 0  9997
2 43760  97.4955   4.7028 0005158 201.1481 158.9559 15.52006779322504
